[{"OBJECT_NAME":"STARLINK-30368","OBJECT_ID":"2023-131W","EPOCH":"2026-03-09T22:00:01.999584","MEAN_MOTION":15.10444621,"ECCENTRICITY":9.044e-5,"INCLINATION":43.0006,"RA_OF_ASC_NODE":170.4263,"ARG_OF_PERICENTER":221.0122,"MEAN_ANOMALY":347.301,"EPHEMERIS_TYPE":0,"CLASSIFICATION_TYPE":"U","NORAD_CAT_ID":57752,"ELEMENT_SET_NO":999,"REV_AT_EPOCH":578,"BSTAR":0.092788954,"MEAN_MOTION_DOT":0.01700378,"MEAN_MOTION_DDOT":0},{"OBJECT_NAME":"YAOGAN-39 05A","OBJECT_ID":"2023-194A","EPOCH":"2026-03-08T20:55:33.510432","MEAN_MOTION":15.23021204,"ECCENTRICITY":0.00045924,"INCLINATION":35.0016,"RA_OF_ASC_NODE":328.2574,"ARG_OF_PERICENTER":131.0582,"MEAN_ANOMALY":229.053,"EPHEMERIS_TYPE":0,"CLASSIFICATION_TYPE":"U","NORAD_CAT_ID":58557,"ELEMENT_SET_NO":999,"REV_AT_EPOCH":12505,"BSTAR":0.00065635507,"MEAN_MOTION_DOT":0.00015822,"MEAN_MOTION_DDOT":0}]
